OBJECT_NAME,OBJECT_ID,EPOCH,MEAN_MOTION,ECCENTRICITY,INCLINATION,RA_OF_ASC_NODE,ARG_OF_PERICENTER,MEAN_ANOMALY,EPHEMERIS_TYPE,CLASSIFICATION_TYPE,NORAD_CAT_ID,ELEMENT_SET_NO,REV_AT_EPOCH,BSTAR,MEAN_MOTION_DOT,MEAN_MOTION_DDOT
GSAT-29,2018-089A,2026-07-07T03:44:36.780864,1.00273523,.0003279,0.0615,257.2424,183.9116,315.1710,0,U,43698,999,2798,0,.1E-5,0
ES'HAIL 2,2018-090A,2026-07-07T03:58:38.786880,1.00272453,.0002324,0.0188,293.5661,217.6181,219.4262,0,U,43700,999,2787,0,.159E-5,0
GEO-KOMPSAT-2A,2018-100A,2026-07-07T04:33:38.519424,1.00271247,.0002339,0.0407,147.8345,311.6148,22.3872,0,U,43823,999,2783,0,-.329E-5,0
GSAT-11,2018-100B,2026-07-07T03:49:58.766880,1.00271238,.0007892,0.0686,264.6141,191.3678,320.6597,0,U,43824,999,2767,0,-.62E-6,0
GSAT-7A,2018-105A,2026-07-07T03:46:44.079168,1.00269542,.0001851,0.0637,93.4063,9.3826,301.8041,0,U,43864,999,2764,0,.42E-6,0
COSMOS 2533,2018-107A,2026-07-06T08:59:38.490720,1.00275090,.0000078,0.0411,114.7495,134.6916,239.8401,0,U,43867,999,2764,0,-.25E-6,0
TJS-3,2018-110A,2026-07-02T18:29:27.521088,1.00275771,.0002326,2.5826,80.3162,74.4390,191.5459,0,U,43874,999,2757,0,-.207E-5,0
ZHONGXING-2D,2019-001A,2026-07-07T00:40:35.308416,1.00268131,.0000831,0.0370,114.3936,232.5527,78.1924,0,U,43920,999,5427,0,-.322E-5,0
HELLAS-SAT 4 & SGS-1,2019-007A,2026-07-07T03:50:38.879808,1.00270572,.0005864,0.0648,130.9780,13.7950,237.0399,0,U,44034,999,2756,0,.168E-5,0
GSAT-31,2019-007B,2026-07-07T03:42:38.461248,1.00274604,.0000132,0.0181,269.0518,66.9034,52.7261,0,U,44035,999,2716,0,.14E-5,0
NUSANTARA SATU,2019-009A,2026-07-06T21:19:51.468096,1.00270055,.0004682,0.0343,125.0647,358.9786,266.7893,0,U,44048,999,2696,0,-.22E-5,0
ZHONGXING-6C,2019-012A,2026-07-06T17:50:06.203904,1.00269147,.0014553,0.0711,72.0856,340.7266,269.8403,0,U,44067,999,2693,0,-.321E-5,0
WGS 10 (USA 291),2019-014A,2026-07-07T03:46:06.637728,1.00271775,.0000078,0.0192,43.1175,171.7141,187.1276,0,U,44071,999,2681,0,.62E-6,0
TIANLIAN 2-01,2019-017A,2026-07-07T03:50:51.184032,1.00271465,.0001395,0.5882,83.0984,67.5494,269.2239,0,U,44076,999,2684,0,-.92E-6,0
ARABSAT-6A,2019-021A,2026-07-07T03:50:38.879808,1.00266836,.0001335,0.0454,1.7600,269.9935,101.5402,0,U,44186,999,2635,0,.168E-5,0
BEIDOU-3 IGSO-1,2019-023A,2026-07-06T20:03:43.038720,1.00285919,.0025592,58.7222,37.4487,223.9326,83.2651,0,U,44204,999,740,0,-.207E-5,0
BEIDOU-2 G8,2019-027A,2026-07-06T23:02:10.437792,1.00275091,.0009986,1.7051,74.5160,285.1941,55.2490,0,U,44231,999,2627,0,-.233E-5,0
YAMAL 601,2019-031A,2026-07-07T03:42:51.950016,1.00271278,.0002481,0.0147,79.6502,23.4276,286.7669,0,U,44307,999,2612,0,.135E-5,0
AT&T T-16,2019-034A,2026-07-07T04:34:39.173952,1.00268802,.0000473,0.0133,65.3579,248.2524,299.3545,0,U,44333,999,2583,0,-.1E-5,0
EUTELSAT 7C,2019-034B,2026-07-07T03:30:53.096832,1.00272499,.0003364,0.0758,181.2587,273.6653,249.9343,0,U,44334,999,703,0,.64E-6,0
BEIDOU-3 IGSO-2,2019-035A,2026-07-06T19:29:51.622656,1.00260595,.003967,55.2502,158.6905,216.4592,321.0694,0,U,44337,999,2586,0,-.75E-6,0
COSMOS 2539,2019-048A,2026-07-06T12:08:12.599232,1.00275305,.0000442,0.0341,101.5693,85.7934,291.1774,0,U,44457,999,2542,0,.96E-6,0
EDRS-C,2019-049A,2026-07-07T04:08:38.650848,1.00269106,.0001053,0.0196,114.9561,0.9718,13.8823,0,U,44475,999,2541,0,-.247E-5,0
INTELSAT 39 (IS-39),2019-049B,2026-07-07T03:46:29.101728,1.00268632,.0000902,0.0197,19.9142,303.4172,80.3703,0,U,44476,999,2532,0,0,0
AMOS-17,2019-050A,2026-07-07T03:58:38.786880,1.00270759,.0001483,0.0243,324.1923,142.5481,255.0373,0,U,44479,999,2538,0,.124E-5,0
AEHF-5 (USA 292),2019-051A,2026-07-07T02:12:42.960096,1.00267434,.0065479,1.4368,337.6729,358.7589,74.8264,0,U,44481,999,2546,0,-.241E-5,0
EUTELSAT 5 WEST B,2019-067A,2026-07-07T04:14:38.747040,1.00271374,.0003185,0.0658,339.5785,127.5317,236.6958,0,U,44624,999,2463,0,-.27E-6,0
MEV-1,2019-067B,2026-06-16T22:18:40.152960,1.00269616,.00027946,0.8740,268.9828,179.8034,307.2103,0,U,44625,999,6174,0,-.149E-5,0
TJS-4,2019-070A,2026-07-07T03:52:43.504896,1.00270811,.0003566,0.0629,87.3169,320.9915,18.5589,0,U,44637,999,2473,0,-.155E-5,0
TIBA-1,2019-080A,2026-07-07T03:50:38.879808,1.00274784,.0002215,0.0507,352.0656,136.0776,250.1684,0,U,44800,999,2425,0,.171E-5,0
INMARSAT GX5,2019-080B,2026-07-07T02:51:38.529216,1.00271260,.0002189,0.0358,16.6848,84.6523,237.6801,0,U,44801,999,698,0,.9E-6,0
JCSAT-18 (KACIFIC 1),2019-091A,2026-07-06T15:03:45.263808,1.00268920,.0000477,0.0370,220.0454,350.5897,89.9040,0,U,44868,999,2420,0,-.186E-5,0
