GSAT-29                 
1 43698U 18089A   26188.15598126  .00000100  00000+0  00000+0 0  9997
2 43698   0.0615 257.2424 0003279 183.9116 315.1710  1.00273523 27987
ES'HAIL 2               
1 43700U 18090A   26188.16572670  .00000159  00000+0  00000+0 0  9994
2 43700   0.0188 293.5661 0002324 217.6181 219.4262  1.00272453 27876
GEO-KOMPSAT-2A          
1 43823U 18100A   26188.19002916 -.00000329  00000+0  00000+0 0  9996
2 43823   0.0407 147.8345 0002339 311.6148  22.3872  1.00271247 27834
GSAT-11                 
1 43824U 18100B   26188.15970795 -.00000062  00000+0  00000+0 0  9996
2 43824   0.0686 264.6141 0007892 191.3678 320.6597  1.00271238 27676
GSAT-7A                 
1 43864U 18105A   26188.15745462  .00000042  00000+0  00000+0 0  9993
2 43864   0.0637  93.4063 0001851   9.3826 301.8041  1.00269542 27646
COSMOS 2533             
1 43867U 18107A   26187.37475105 -.00000025  00000+0  00000+0 0  9997
2 43867   0.0411 114.7495 0000078 134.6916 239.8401  1.00275090 27642
TJS-3                   
1 43874U 18110A   26183.77045742 -.00000207  00000+0  00000+0 0  9991
2 43874   2.5826  80.3162 0002326  74.4390 191.5459  1.00275771 27576
ZHONGXING-2D            
1 43920U 19001A   26188.02818644 -.00000322  00000+0  00000+0 0  9993
2 43920   0.0370 114.3936 0000831 232.5527  78.1924  1.00268131 54276
HELLAS-SAT 4 & SGS-1    
1 44034U 19007A   26188.16017222  .00000168  00000+0  00000+0 0  9991
2 44034   0.0648 130.9780 0005864  13.7950 237.0399  1.00270572 27568
GSAT-31                 
1 44035U 19007B   26188.15461182  .00000140  00000+0  00000+0 0  9999
2 44035   0.0181 269.0518 0000132  66.9034  52.7261  1.00274604 27166
NUSANTARA SATU          
1 44048U 19009A   26187.88879014 -.00000220  00000+0  00000+0 0  9991
2 44048   0.0343 125.0647 0004682 358.9786 266.7893  1.00270055 26967
ZHONGXING-6C            
1 44067U 19012A   26187.74312736 -.00000321  00000+0  00000+0 0  9996
2 44067   0.0711  72.0856 0014553 340.7266 269.8403  1.00269147 26938
WGS 10 (USA 291)        
1 44071U 19014A   26188.15702127  .00000062  00000+0  00000+0 0  9997
2 44071   0.0192  43.1175 0000078 171.7141 187.1276  1.00271775 26817
TIANLIAN 2-01           
1 44076U 19017A   26188.16031463 -.00000092  00000+0  00000+0 0  9998
2 44076   0.5882  83.0984 0001395  67.5494 269.2239  1.00271465 26840
ARABSAT-6A              
1 44186U 19021A   26188.16017222  .00000168  00000+0  00000+0 0  9995
2 44186   0.0454   1.7600 0001335 269.9935 101.5402  1.00266836 26358
BEIDOU-3 IGSO-1         
1 44204U 19023A   26187.83591480 -.00000207  00000+0  00000+0 0  9999
2 44204  58.7222  37.4487 0025592 223.9326  83.2651  1.00285919  7406
BEIDOU-2 G8             
1 44231U 19027A   26187.95984303 -.00000233  00000+0  00000+0 0  9995
2 44231   1.7051  74.5160 0009986 285.1941  55.2490  1.00275091 26272
YAMAL 601               
1 44307U 19031A   26188.15476794  .00000135  00000+0  00000+0 0  9997
2 44307   0.0147  79.6502 0002481  23.4276 286.7669  1.00271278 26123
AT&T T-16               
1 44333U 19034A   26188.19073118 -.00000100  00000+0  00000+0 0  9999
2 44333   0.0133  65.3579 0000473 248.2524 299.3545  1.00268802 25834
EUTELSAT 7C             
1 44334U 19034B   26188.14644788  .00000064  00000+0  00000+0 0  9990
2 44334   0.0758 181.2587 0003364 273.6653 249.9343  1.00272499  7038
BEIDOU-3 IGSO-2         
1 44337U 19035A   26187.81240304 -.00000075  00000+0  00000+0 0  9996
2 44337  55.2502 158.6905 0039670 216.4592 321.0694  1.00260595 25864
COSMOS 2539             
1 44457U 19048A   26187.50570138  .00000096  00000+0  00000+0 0  9992
2 44457   0.0341 101.5693 0000442  85.7934 291.1774  1.00275305 25422
EDRS-C                  
1 44475U 19049A   26188.17266957 -.00000247  00000+0  00000+0 0  9997
2 44475   0.0196 114.9561 0001053   0.9718  13.8823  1.00269106 25415
INTELSAT 39 (IS-39)     
1 44476U 19049B   26188.15728127  .00000000  00000+0  00000+0 0  9994
2 44476   0.0197  19.9142 0000902 303.4172  80.3703  1.00268632 25322
AMOS-17                 
1 44479U 19050A   26188.16572670  .00000124  00000+0  00000+0 0  9997
2 44479   0.0243 324.1923 0001483 142.5481 255.0373  1.00270759 25388
AEHF-5 (USA 292)        
1 44481U 19051A   26188.09216389 -.00000241  00000+0  00000+0 0  9996
2 44481   1.4368 337.6729 0065479 358.7589  74.8264  1.00267434 25463
EUTELSAT 5 WEST B       
1 44624U 19067A   26188.17683735 -.00000027  00000+0  00000+0 0  9996
2 44624   0.0658 339.5785 0003185 127.5317 236.6958  1.00271374 24633
MEV-1                   
1 44625U 19067B   26167.92963140 -.00000149  00000+0  00000+0 0  9993
2 44625   0.8740 268.9828 0002794 179.8034 307.2103  1.00269616 61744
TJS-4                   
1 44637U 19070A   26188.16161464 -.00000155  00000+0  00000+0 0  9995
2 44637   0.0629  87.3169 0003566 320.9915  18.5589  1.00270811 24738
TIBA-1                  
1 44800U 19080A   26188.16017222  .00000171  00000+0  00000+0 0  9997
2 44800   0.0507 352.0656 0002215 136.0776 250.1684  1.00274784 24259
INMARSAT GX5            
1 44801U 19080B   26188.11919594  .00000090  00000+0  00000+0 0  9996
2 44801   0.0358  16.6848 0002189  84.6523 237.6801  1.00271260  6985
JCSAT-18 (KACIFIC 1)    
1 44868U 19091A   26187.62760722 -.00000186  00000+0  00000+0 0  9990
2 44868   0.0370 220.0454 0000477 350.5897  89.9040  1.00268920 24200
